FENGYUN 3D              
1 43010U 17072A   26171.24824922  .00000249  00000+0  13934-3 0  9992
2 43010  99.0132 145.7264 0002502  57.7607 302.3811 14.19740853445423
NOAA 20 (JPSS-1)        
1 43013U 17073A   26171.24370724  .00000040  00000+0  40009-4 0  9995
2 43013  98.7771 110.6792 0000378 117.2058 242.9156 14.19512250444900
GOES 17                 
1 43226U 18022A   26171.12991311 -.00000187  00000+0  00000+0 0  9999
2 43226   0.9457  85.6586 0000578  27.7610 112.1610  1.00269494 30454
SENTINEL-3B             
1 43437U 18039A   26170.78451659  .00000070  00000+0  46883-4 0  9992
2 43437  98.6248 238.2796 0000728  93.3336 266.7928 14.26735362424493
FENGYUN 2H              
1 43491U 18050A   26171.05129718 -.00000135  00000+0  00000+0 0  9993
2 43491   3.0397  79.0417 0001894 138.0026 149.0721  1.00269328 29461
METOP-C                 
1 43689U 18087A   26171.23547936  .00000063  00000+0  48594-4 0  9992
2 43689  98.6643 230.7834 0001872 125.4613 234.6740 14.21512828395260
GEO-KOMPSAT-2A          
1 43823U 18100A   26171.27478292 -.00000348  00000+0  00000+0 0  9992
2 43823   0.0472 151.8059 0002160 294.4604  49.4029  1.00272257 27667
METEOR-M2 2             
1 44387U 19038A   26171.26525613  .00000060  00000+0  45595-4 0  9991
2 44387  98.9149 158.5968 0001978  43.4360 316.6974 14.24366747361735
ARKTIKA-M 1             
1 47719U 21016A   26168.49069990 -.00000210  00000+0  00000+0 0  9999
2 47719  63.2922  57.5948 7288528 269.9420  14.6012  2.00622504 38796
FENGYUN 3E              
1 49008U 21062A   26171.30224161 -.00000027  00000+0  81612-5 0  9990
2 49008  98.7493 174.6761 0002861  80.9049 279.2451 14.19904071257024
GOES 18                 
1 51850U 22021A   26170.93705689  .00000091  00000+0  00000+0 0  9997
2 51850   0.0372 171.7340 0000425 325.4670 331.2805  1.00271950  6625
NOAA 21 (JPSS-2)        
1 54234U 22150A   26171.27649714  .00000045  00000+0  42081-4 0  9992
2 54234  98.7059 110.0139 0001831 147.4458 212.6832 14.19565971186983
METEOSAT-12 (MTG-I1)    
1 54743U 22170C   26171.24937016 -.00000013  00000+0  00000+0 0  9997
2 54743   0.7421  23.5307 0003320  70.9892 263.3203  1.00273524 13009
TIANMU-1 03             
1 55973U 23039A   26171.28368045  .00013576  00000+0  26727-3 0  9997
2 55973  97.5241 345.3737 0004110  91.3553 268.8168 15.47360897181316
TIANMU-1 04             
1 55974U 23039B   26171.27196113  .00013801  00000+0  26607-3 0  9990
2 55974  97.5175 344.5157 0004767  87.3804 272.7991 15.47960153181322
TIANMU-1 05             
1 55975U 23039C   26171.26459285  .00012891  00000+0  25456-3 0  9991
2 55975  97.5222 344.9678 0004065 107.7642 252.4051 15.47285315181294
TIANMU-1 06             
1 55976U 23039D   26171.27553148  .00013673  00000+0  26452-3 0  9992
2 55976  97.5228 345.6181 0004344 102.6945 257.4791 15.47863546181326
FENGYUN 3G              
1 56232U 23055A   26171.25989646  .00020914  00000+0  33793-3 0  9992
2 56232  49.9935 330.1873 0007053 309.2810  50.7531 15.52748873180484
METEOR-M2 3             
1 57166U 23091A   26171.33053700 -.00000013  00000+0  12949-4 0  9991
2 57166  98.6081 226.2446 0004521 147.4913 212.6545 14.24047055154968
TIANMU-1 07             
1 57399U 23101A   26171.30519596  .00005025  00000+0  17646-3 0  9993
2 57399  97.2588 221.9021 0004220 115.1806 244.9873 15.29837710162123
TIANMU-1 08             
1 57400U 23101B   26171.33723786  .00005112  00000+0  17940-3 0  9991
2 57400  97.2576 221.7036 0005668 107.5110 252.6751 15.29842602162124
TIANMU-1 09             
1 57401U 23101C   26171.25518093  .00005117  00000+0  17943-3 0  9994
2 57401  97.2534 221.0376 0004718 120.0270 240.1439 15.29873815162115
TIANMU-1 10             
1 57402U 23101D   26171.28828858  .00005179  00000+0  18169-3 0  9990
2 57402  97.2614 222.1235 0006324 118.2181 241.9699 15.29845665162115
FENGYUN 3F              
1 57490U 23111A   26171.28608646  .00000029  00000+0  33943-4 0  9996
2 57490  98.6835 241.2370 0001589  91.2440 268.8919 14.19939572149308
ARKTIKA-M 2             
1 58584U 23198A   26168.75920439  .00000145  00000+0  00000+0 0  9993
2 58584  63.2243 154.2920 6902344 267.4286  18.7609  2.00612717 18330
TIANMU-1 11             
1 58645U 23205A   26171.32998647  .00004447  00000+0  17034-3 0  9991
2 58645  97.3446 192.8375 0008580   6.3678 353.7669 15.27022391138002
TIANMU-1 12             
1 58646U 23205B   26171.30042448  .00004662  00000+0  17870-3 0  9996
2 58646  97.3436 192.5635 0006348 352.2660   7.8480 15.26988139137986
TIANMU-1 13             
1 58647U 23205C   26171.33290473  .00004574  00000+0  17616-3 0  9993
2 58647  97.3462 192.8685 0005546 328.6630  31.4278 15.26840984137980
TIANMU-1 14             
1 58648U 23205D   26171.31801907  .00004496  00000+0  17294-3 0  9997
2 58648  97.3398 192.0332 0006511 332.9861  27.1038 15.26885568137980
TIANMU-1 19             
1 58660U 23208A   26171.29231221  .00006766  00000+0  22421-3 0  9997
2 58660  97.4507 287.6080 0003620 313.7393  46.3548 15.31613319137802
