OBJECT_NAME,OBJECT_ID,EPOCH,MEAN_MOTION,ECCENTRICITY,INCLINATION,RA_OF_ASC_NODE,ARG_OF_PERICENTER,MEAN_ANOMALY,EPHEMERIS_TYPE,CLASSIFICATION_TYPE,NORAD_CAT_ID,ELEMENT_SET_NO,REV_AT_EPOCH,BSTAR,MEAN_MOTION_DOT,MEAN_MOTION_DDOT
FENGYUN 3D,2017-072A,2026-06-20T05:57:28.732608,14.19740853,.00025029,99.0132,145.7264,57.7607,302.3811,0,U,43010,999,44542,.13934002E-3,.249E-5,0
NOAA 20 (JPSS-1),2017-073A,2026-06-20T05:50:56.305536,14.19512250,.00003784,98.7771,110.6792,117.2058,242.9156,0,U,43013,999,44490,.40009058E-4,.4E-6,0
GOES 17,2018-022A,2026-06-20T03:07:04.492704,1.00269494,.00005787,0.9457,85.6586,27.7610,112.1610,0,U,43226,999,3045,0,-.187E-5,0
SENTINEL-3B,2018-039A,2026-06-19T18:49:42.233376,14.26735362,.00007281,98.6248,238.2796,93.3336,266.7928,0,U,43437,999,42449,.46883003E-4,.7E-6,0
FENGYUN 2H,2018-050A,2026-06-20T01:13:52.076352,1.00269328,.00018941,3.0397,79.0417,138.0026,149.0721,0,U,43491,999,2946,0,-.135E-5,0
METOP-C,2018-087A,2026-06-20T05:39:05.416704,14.21512828,.0001872,98.6643,230.7834,125.4613,234.6740,0,U,43689,999,39526,.48594105E-4,.63E-6,0
GEO-KOMPSAT-2A,2018-100A,2026-06-20T06:35:41.244288,1.00272257,.00021602,0.0472,151.8059,294.4604,49.4029,0,U,43823,999,2766,0,-.348E-5,0
METEOR-M2 2,2019-038A,2026-06-20T06:21:58.129632,14.24366747,.00019781,98.9149,158.5968,43.4360,316.6974,0,U,44387,999,36173,.45595082E-4,.6E-6,0
ARKTIKA-M 1,2021-016A,2026-06-17T11:46:36.471360,2.00622504,.72885287,63.2922,57.5948,269.9420,14.6012,0,U,47719,999,3879,0,-.21E-5,0
FENGYUN 3E,2021-062A,2026-06-20T07:15:13.675104,14.19904071,.00028614,98.7493,174.6761,80.9049,279.2451,0,U,49008,999,25702,.816123E-5,-.27E-6,0
GOES 18,2022-021A,2026-06-19T22:29:21.715296,1.00271950,.00004251,0.0372,171.7340,325.4670,331.2805,0,U,51850,999,662,0,.91E-6,0
NOAA 21 (JPSS-2),2022-150A,2026-06-20T06:38:09.352896,14.19565971,.00018315,98.7059,110.0139,147.4458,212.6832,0,U,54234,999,18698,.42081399E-4,.45E-6,0
METEOSAT-12 (MTG-I1),2022-170C,2026-06-20T05:59:05.581824,1.00273524,.00033202,0.7421,23.5307,70.9892,263.3203,0,U,54743,999,1300,0,-.13E-6,0
TIANMU-1 03,2023-039A,2026-06-20T06:48:29.990880,15.47360897,.000411,97.5241,345.3737,91.3553,268.8168,0,U,55973,999,18131,.26726665E-3,.13576E-3,0
TIANMU-1 04,2023-039B,2026-06-20T06:31:37.441632,15.47960153,.00047679,97.5175,344.5157,87.3804,272.7991,0,U,55974,999,18132,.26606677E-3,.13801E-3,0
TIANMU-1 05,2023-039C,2026-06-20T06:21:00.822240,15.47285315,.00040651,97.5222,344.9678,107.7642,252.4051,0,U,55975,999,18129,.25456313E-3,.12891E-3,0
TIANMU-1 06,2023-039D,2026-06-20T06:36:45.919872,15.47863546,.00043445,97.5228,345.6181,102.6945,257.4791,0,U,55976,999,18132,.26451911E-3,.13673E-3,0
FENGYUN 3G,2023-055A,2026-06-20T06:14:15.054144,15.52748873,.00070539,49.9935,330.1873,309.2810,50.7531,0,U,56232,999,18048,.33792715E-3,.20914E-3,0
METEOR-M2 3,2023-091A,2026-06-20T07:55:58.396800,14.24047055,.00045218,98.6081,226.2446,147.4913,212.6545,0,U,57166,999,15496,.1294936E-4,-.13E-6,0
TIANMU-1 07,2023-101A,2026-06-20T07:19:28.930944,15.29837710,.00042201,97.2588,221.9021,115.1806,244.9873,0,U,57399,999,16212,.17645813E-3,.5025E-4,0
TIANMU-1 08,2023-101B,2026-06-20T08:05:37.351104,15.29842602,.00056684,97.2576,221.7036,107.5110,252.6751,0,U,57400,999,16212,.17939817E-3,.5112E-4,0
TIANMU-1 09,2023-101C,2026-06-20T06:07:27.632352,15.29873815,.0004718,97.2534,221.0376,120.0270,240.1439,0,U,57401,999,16211,.17942516E-3,.5117E-4,0
TIANMU-1 10,2023-101D,2026-06-20T06:55:08.133312,15.29845665,.00063242,97.2614,222.1235,118.2181,241.9699,0,U,57402,999,16211,.18168747E-3,.5179E-4,0
FENGYUN 3F,2023-111A,2026-06-20T06:51:57.870144,14.19939572,.00015899,98.6835,241.2370,91.2440,268.8919,0,U,57490,999,14930,.33943489E-4,.29E-6,0
ARKTIKA-M 2,2023-198A,2026-06-17T18:13:15.259296,2.00612717,.69023443,63.2243,154.2920,267.4286,18.7609,0,U,58584,999,1833,0,.145E-5,0
TIANMU-1 11,2023-205A,2026-06-20T07:55:10.831008,15.27022391,.00085809,97.3446,192.8375,6.3678,353.7669,0,U,58645,999,13800,.17033633E-3,.4447E-4,0
TIANMU-1 12,2023-205B,2026-06-20T07:12:36.675072,15.26988139,.0006348,97.3436,192.5635,352.2660,7.8480,0,U,58646,999,13798,.17869512E-3,.4662E-4,0
TIANMU-1 13,2023-205C,2026-06-20T07:59:22.968672,15.26840984,.0005546,97.3462,192.8685,328.6630,31.4278,0,U,58647,999,13798,.1761578E-3,.4574E-4,0
TIANMU-1 14,2023-205D,2026-06-20T07:37:56.847648,15.26885568,.00065117,97.3398,192.0332,332.9861,27.1038,0,U,58648,999,13798,.17294213E-3,.4496E-4,0
TIANMU-1 19,2023-208A,2026-06-20T07:00:55.774944,15.31613319,.00036208,97.4507,287.6080,313.7393,46.3548,0,U,58660,999,13780,.22421314E-3,.6766E-4,0
